start=new Date('2023-04-25T00:00:00.000Z').valueOf();
sats=[{"MEAN_MOTION_DOT":"0.00041000","EPOCH":"2023-04-24T16:39:36.790848","MEAN_MOTION":"15.06403297","OBJECT_NAME":"STARLINK-1289","INCLINATION":"53.0522","RCS_SIZE":"LARGE","PERIOD":"95.592","ARG_OF_PERICENTER":"74.5921","PERIAPSIS":"546.249","MEAN_ELEMENT_THEORY":"SGP4","CENTER_NAME":"EARTH","TIME_SYSTEM":"UTC","SITE":"AFETR","RA_OF_ASC_NODE":"180.2168","TLE_LINE1":"1 45391U 20019AH  23114.69417582  .00041000  00000-0  27552-2 0  9995","ECCENTRICITY":"0.00013780","COUNTRY_CODE":"US","MEAN_ANOMALY":"285.5220","LAUNCH_DATE":"2020-03-18","CLASSIFICATION_TYPE":"U","ELEMENT_SET_NO":"999","SEMIMAJOR_AXIS":"6925.338","BSTAR":"0.00275520000000","OBJECT_TYPE":"PAYLOAD","NORAD_CAT_ID":"45391","EPHEMERIS_TYPE":"0","GP_ID":"230705751","FILE":"3893472","DECAY_DATE":null,"REF_FRAME":"TEME","APOAPSIS":"548.158","TLE_LINE2":"2 45391  53.0522 180.2168 0001378  74.5921 285.5220 15.06403297171475","OBJECT_ID":"2020-019AH","REV_AT_EPOCH":"17147","MEAN_MOTION_DDOT":"0.0000000000000"},{"LAUNCH_DATE":"2020-03-18","CLASSIFICATION_TYPE":"U","ELEMENT_SET_NO":"999","SEMIMAJOR_AXIS":"6832.412","ECCENTRICITY":"0.00084090","TLE_LINE1":"1 45392U 20019AJ  23114.57478356  .00047904  00000-0  12952-2 0  9996","COUNTRY_CODE":"US","MEAN_ANOMALY":"336.7845","APOAPSIS":"460.022","REF_FRAME":"TEME","OBJECT_ID":"2020-019AJ","REV_AT_EPOCH":"17203","TLE_LINE2":"2 45392  52.9799 134.5888 0008409  23.3537 336.7845 15.37240061172035","MEAN_MOTION_DDOT":"0.0000000000000","OBJECT_TYPE":"PAYLOAD","BSTAR":"0.00129520000000","EPHEMERIS_TYPE":"0","NORAD_CAT_ID":"45392","GP_ID":"230706925","DECAY_DATE":null,"FILE":"3893507","RCS_SIZE":"LARGE","PERIOD":"93.674","MEAN_MOTION_DOT":"0.00047904","EPOCH":"2023-04-24T13:47:41.299584","INCLINATION":"52.9799","OBJECT_NAME":"STARLINK-1290","MEAN_MOTION":"15.37240061","CENTER_NAME":"EARTH","TIME_SYSTEM":"UTC","SITE":"AFETR","RA_OF_ASC_NODE":"134.5888","MEAN_ELEMENT_THEORY":"SGP4","PERIAPSIS":"448.532","ARG_OF_PERICENTER":"23.3537"},{"MEAN_MOTION_DOT":"0.00062828","EPOCH":"2023-04-24T15:47:52.280736","MEAN_MOTION":"15.06444117","OBJECT_NAME":"STARLINK-1291","INCLINATION":"53.0504","RCS_SIZE":"LARGE","PERIOD":"95.589","ARG_OF_PERICENTER":"60.0433","PERIAPSIS":"545.896","MEAN_ELEMENT_THEORY":"SGP4","CENTER_NAME":"EARTH","TIME_SYSTEM":"UTC","SITE":"AFETR","RA_OF_ASC_NODE":"180.3916","TLE_LINE1":"1 45393U 20019AK  23114.65824399  .00062828  00000-0  41944-2 0  9993","ECCENTRICITY":"0.00017080","COUNTRY_CODE":"US","MEAN_ANOMALY":"300.0726","LAUNCH_DATE":"2020-03-18","CLASSIFICATION_TYPE":"U","ELEMENT_SET_NO":"999","SEMIMAJOR_AXIS":"6925.213","OBJECT_TYPE":"PAYLOAD","NORAD_CAT_ID":"45393","BSTAR":"0.00419440000000","EPHEMERIS_TYPE":"0","GP_ID":"230706433","DECAY_DATE":null,"FILE":"3893507","APOAPSIS":"548.261","REF_FRAME":"TEME","TLE_LINE2":"2 45393  53.0504 180.3916 0001708  60.0433 300.0726 15.06444117171508","REV_AT_EPOCH":"17150","OBJECT_ID":"2020-019AK","MEAN_MOTION_DDOT":"0.0000000000000"},{"RA_OF_ASC_NODE":"182.3394","SITE":"AFETR","TIME_SYSTEM":"UTC","CENTER_NAME":"EARTH","PERIAPSIS":"546.225","MEAN_ELEMENT_THEORY":"SGP4","ARG_OF_PERICENTER":"88.9984","PERIOD":"95.587","RCS_SIZE":"LARGE","OBJECT_NAME":"STARLINK-1292","INCLINATION":"53.0525","MEAN_MOTION":"15.06488866","EPOCH":"2023-04-24T05:21:33.955488","MEAN_MOTION_DOT":"0.00101478","MEAN_MOTION_DDOT":"0.0000000000000","OBJECT_ID":"2020-019AL","REV_AT_EPOCH":"17141","TLE_LINE2":"2 45394  53.0525 182.3394 0001034  88.9984 271.1123 15.06488866171414","APOAPSIS":"547.657","REF_FRAME":"TEME","FILE":"3893330","DECAY_DATE":null,"GP_ID":"230696316","OBJECT_TYPE":"PAYLOAD","BSTAR":"0.00671810000000","NORAD_CAT_ID":"45394","EPHEMERIS_TYPE":"0","SEMIMAJOR_AXIS":"6925.076","ELEMENT_SET_NO":"999","LAUNCH_DATE":"2020-03-18","CLASSIFICATION_TYPE":"U","MEAN_ANOMALY":"271.1123","COUNTRY_CODE":"US","ECCENTRICITY":"0.00010340","TLE_LINE1":"1 45394U 20019AL  23114.22330967  .00101478  00000-0  67181-2 0  9996"},{"BSTAR":"0.00050085000000","OBJECT_TYPE":"PAYLOAD","NORAD_CAT_ID":"45395","EPHEMERIS_TYPE":"0","GP_ID":"230696067","FILE":"3893330","DECAY_DATE":null,"REF_FRAME":"TEME","APOAPSIS":"548.225","REV_AT_EPOCH":"17081","OBJECT_ID":"2020-019AM","TLE_LINE2":"2 45395  53.0505 183.7023 0001589  69.3347 290.7812 15.06428923170811","MEAN_MOTION_DDOT":"0.0000000000000","ECCENTRICITY":"0.00015890","TLE_LINE1":"1 45395U 20019AM  23113.92106441  .00007192  00000-0  50085-3 0  9995","COUNTRY_CODE":"US","MEAN_ANOMALY":"290.7812","LAUNCH_DATE":"2020-03-18","CLASSIFICATION_TYPE":"U","ELEMENT_SET_NO":"999","SEMIMAJOR_AXIS":"6925.260","MEAN_ELEMENT_THEORY":"SGP4","PERIAPSIS":"546.024","ARG_OF_PERICENTER":"69.3347","CENTER_NAME":"EARTH","TIME_SYSTEM":"UTC","SITE":"AFETR","RA_OF_ASC_NODE":"183.7023","MEAN_MOTION_DOT":"0.00007192","EPOCH":"2023-04-23T22:06:19.965024","INCLINATION":"53.0505","OBJECT_NAME":"STARLINK-1297","MEAN_MOTION":"15.06428923","RCS_SIZE":"LARGE","PERIOD":"95.590"},{"MEAN_ANOMALY":"295.2036","ECCENTRICITY":"0.00013350","TLE_LINE1":"1 45396U 20019AN  23114.56610537  .00077996  00000-0  51914-2 0  9993","COUNTRY_CODE":"US","ELEMENT_SET_NO":"999","SEMIMAJOR_AXIS":"6925.214","CLASSIFICATION_TYPE":"U","LAUNCH_DATE":"2020-03-18","FILE":"3893330","DECAY_DATE":null,"BSTAR":"0.00519140000000","OBJECT_TYPE":"PAYLOAD","NORAD_CAT_ID":"45396","EPHEMERIS_TYPE":"0","GP_ID":"230694818","MEAN_MOTION_DDOT":"0.0000000000000","APOAPSIS":"548.004","REF_FRAME":"TEME","REV_AT_EPOCH":"17144","OBJECT_ID":"2020-019AN","TLE_LINE2":"2 45396  53.0523 180.8088 0001335  64.9092 295.2036 15.06443797171442","OBJECT_NAME":"STARLINK-1303","INCLINATION":"53.0523","MEAN_MOTION":"15.06443797","MEAN_MOTION_DOT":"0.00077996","EPOCH":"2023-04-24T13:35:11.503968","PERIOD":"95.589","RCS_SIZE":"LARGE","MEAN_ELEMENT_THEORY":"SGP4","PERIAPSIS":"546.155","ARG_OF_PERICENTER":"64.9092","SITE":"AFETR","RA_OF_ASC_NODE":"180.8088","CENTER_NAME":"EARTH","TIME_SYSTEM":"UTC"},{"MEAN_MOTION_DOT":"0.00090379","EPOCH":"2023-04-24T17:02:08.897280","OBJECT_NAME":"STARLINK-1307","INCLINATION":"53.0527","MEAN_MOTION":"15.06527754","RCS_SIZE":"LARGE","PERIOD":"95.584","MEAN_ELEMENT_THEORY":"SGP4","PERIAPSIS":"544.853","ARG_OF_PERICENTER":"83.4694","CENTER_NAME":"EARTH","TIME_SYSTEM":"UTC","SITE":"AFETR","RA_OF_ASC_NODE":"180.1632","ECCENTRICITY":"0.00028440","TLE_LINE1":"1 45397U 20019AP  23114.70982520  .00090379  00000-0  59883-2 0  9997","COUNTRY_CODE":"US","MEAN_ANOMALY":"276.6618","LAUNCH_DATE":"2020-03-18","CLASSIFICATION_TYPE":"U","ELEMENT_SET_NO":"999","SEMIMAJOR_AXIS":"6924.957","OBJECT_TYPE":"PAYLOAD","BSTAR":"0.00598830000000","NORAD_CAT_ID":"45397","EPHEMERIS_TYPE":"0","GP_ID":"230706954","DECAY_DATE":null,"FILE":"3893508","REF_FRAME":"TEME","APOAPSIS":"548.791","REV_AT_EPOCH":"17157","OBJECT_ID":"2020-019AP","TLE_LINE2":"2 45397  53.0527 180.1632 0002844  83.4694 276.6618 15.06527754171574","MEAN_MOTION_DDOT":"0.0000000000000"},{"MEAN_ANOMALY":"276.9749","COUNTRY_CODE":"US","ECCENTRICITY":"0.00022550","TLE_LINE1":"1 45398U 20019AQ  23114.17171714  .00069392  00000-0  46251-2 0  9990","SEMIMAJOR_AXIS":"6925.185","ELEMENT_SET_NO":"999","LAUNCH_DATE":"2020-03-18","CLASSIFICATION_TYPE":"U","DECAY_DATE":null,"FILE":"3893330","GP_ID":"230695816","NORAD_CAT_ID":"45398","OBJECT_TYPE":"PAYLOAD","BSTAR":"0.00462510000000","EPHEMERIS_TYPE":"0","MEAN_MOTION_DDOT":"0.0000000000000","REV_AT_EPOCH":"17142","OBJECT_ID":"2020-019AQ","TLE_LINE2":"2 45398  53.0511 182.5735 0002255  83.1496 276.9749 15.06453522171424","APOAPSIS":"548.611","REF_FRAME":"TEME","INCLINATION":"53.0511","OBJECT_NAME":"STARLINK-1312","MEAN_MOTION":"15.06453522","EPOCH":"2023-04-24T04:07:16.360896","MEAN_MOTION_DOT":"0.00069392","PERIOD":"95.589","RCS_SIZE":"LARGE","PERIAPSIS":"545.488","MEAN_ELEMENT_THEORY":"SGP4","ARG_OF_PERICENTER":"83.1496","RA_OF_ASC_NODE":"182.5735","SITE":"AFETR","TIME_SYSTEM":"UTC","CENTER_NAME":"EARTH"},{"EPOCH":"2023-04-24T03:31:25.479552","MEAN_MOTION_DOT":"0.00034283","INCLINATION":"53.0526","OBJECT_NAME":"STARLINK-1255","MEAN_MOTION":"15.06449136","RCS_SIZE":"LARGE","PERIOD":"95.589","PERIAPSIS":"546.405","MEAN_ELEMENT_THEORY":"SGP4","ARG_OF_PERICENTER":"97.3074","TIME_SYSTEM":"UTC","CENTER_NAME":"EARTH","RA_OF_ASC_NODE":"172.6897","SITE":"AFETR","COUNTRY_CODE":"US","ECCENTRICITY":"0.00009500","TLE_LINE1":"1 45399U 20019AR  23114.14682268  .00034283  00000-0  23062-2 0  9995","MEAN_ANOMALY":"262.8023","LAUNCH_DATE":"2020-03-18","CLASSIFICATION_TYPE":"U","SEMIMAJOR_AXIS":"6925.198","ELEMENT_SET_NO":"999","GP_ID":"230696568","BSTAR":"0.00230620000000","OBJECT_TYPE":"PAYLOAD","NORAD_CAT_ID":"45399","EPHEMERIS_TYPE":"0","FILE":"3893330","DECAY_DATE":null,"REV_AT_EPOCH":"17161","OBJECT_ID":"2020-019AR","TLE_LINE2":"2 45399  53.0526 172.6897 0000950  97.3074 262.8023 15.06449136171615","REF_FRAME":"TEME","APOAPSIS":"547.721","MEAN_MOTION_DDOT":"0.0000000000000"},{"SEMIMAJOR_AXIS":"6913.352","ELEMENT_SET_NO":"999","CLASSIFICATION_TYPE":"U","LAUNCH_DATE":"2020-03-18","MEAN_ANOMALY":"343.7617","COUNTRY_CODE":"US","ECCENTRICITY":"0.00046940","TLE_LINE1":"1 45400U 20019AS  23114.48740582  .00087440  00000-0  52264-2 0  9998","MEAN_MOTION_DDOT":"0.0000000000000","REV_AT_EPOCH":"17160","OBJECT_ID":"2020-019AS","TLE_LINE2":"2 45400  53.0536 170.4238 0004694  16.3524 343.7617 15.10322637171602","REF_FRAME":"TEME","APOAPSIS":"538.462","DECAY_DATE":null,"FILE":"3893330","GP_ID":"230695319","BSTAR":"0.00522640000000","OBJECT_TYPE":"PAYLOAD","EPHEMERIS_TYPE":"0","NORAD_CAT_ID":"45400","PERIOD":"95.344","RCS_SIZE":"LARGE","INCLINATION":"53.0536","OBJECT_NAME":"STARLINK-1213","MEAN_MOTION":"15.10322637","EPOCH":"2023-04-24T11:41:51.862848","MEAN_MOTION_DOT":"0.00087440","RA_OF_ASC_NODE":"170.4238","SITE":"AFETR","TIME_SYSTEM":"UTC","CENTER_NAME":"EARTH","MEAN_ELEMENT_THEORY":"SGP4","PERIAPSIS":"531.972","ARG_OF_PERICENTER":"16.3524"}];
